[{"OBJECT_NAME":"STARLINK-30707","OBJECT_ID":"2023-148Q","EPOCH":"2026-03-09T04:29:20.218848","MEAN_MOTION":15.30207328,"ECCENTRICITY":7.842e-5,"INCLINATION":53.1613,"RA_OF_ASC_NODE":26.7399,"ARG_OF_PERICENTER":97.4654,"MEAN_ANOMALY":262.6436,"EPHEMERIS_TYPE":0,"CLASSIFICATION_TYPE":"U","NORAD_CAT_ID":57949,"ELEMENT_SET_NO":999,"REV_AT_EPOCH":13834,"BSTAR":-0.00012185983,"MEAN_MOTION_DOT":-3.967e-5,"MEAN_MOTION_DDOT":0},{"OBJECT_NAME":"CZ-6A DEB","OBJECT_ID":"2022-151NB","EPOCH":"2026-03-09T18:26:17.609568","MEAN_MOTION":15.22372787,"ECCENTRICITY":0.00267955,"INCLINATION":98.6489,"RA_OF_ASC_NODE":154.0342,"ARG_OF_PERICENTER":180.4296,"MEAN_ANOMALY":179.6918,"EPHEMERIS_TYPE":0,"CLASSIFICATION_TYPE":"U","NORAD_CAT_ID":54601,"ELEMENT_SET_NO":999,"REV_AT_EPOCH":17694,"BSTAR":0.011449911,"MEAN_MOTION_DOT":0.00276508,"MEAN_MOTION_DDOT":0}]
